[{"OBJECT_NAME":"KUIPER-00027","OBJECT_ID":"2025-088S","EPOCH":"2026-03-09T19:05:26.143008","MEAN_MOTION":14.79893472,"ECCENTRICITY":6.658e-5,"INCLINATION":51.9017,"RA_OF_ASC_NODE":95.1167,"ARG_OF_PERICENTER":87.7489,"MEAN_ANOMALY":272.355,"EPHEMERIS_TYPE":0,"CLASSIFICATION_TYPE":"U","NORAD_CAT_ID":63740,"ELEMENT_SET_NO":999,"REV_AT_EPOCH":4763,"BSTAR":-0.00034211181,"MEAN_MOTION_DOT":-2.826e-5,"MEAN_MOTION_DDOT":0},{"OBJECT_NAME":"COROT","OBJECT_ID":"2006-063A","EPOCH":"2026-03-09T22:30:11.406528","MEAN_MOTION":14.50154879,"ECCENTRICITY":0.01887104,"INCLINATION":90.0985,"RA_OF_ASC_NODE":35.9409,"ARG_OF_PERICENTER":102.6453,"MEAN_ANOMALY":259.5926,"EPHEMERIS_TYPE":0,"CLASSIFICATION_TYPE":"U","NORAD_CAT_ID":29678,"ELEMENT_SET_NO":999,"REV_AT_EPOCH":59,"BSTAR":0.00030077955,"MEAN_MOTION_DOT":1.487e-5,"MEAN_MOTION_DDOT":0}]
